COSMOS 2425 (716)       
1 29670U 06062A   21264.44214275  .00000009  00000-0  00000-0 0  9991
2 29670  64.8219 252.2052 0024184 340.5024  14.5082  2.13115051114714
COSMOS 2433 (720)       
1 32275U 07052A   21264.69223218 -.00000088  00000-0  00000-0 0  9998
2 32275  66.0743  13.5915 0003234 204.9889 151.0153  2.13104271108234
COSMOS 2432 (719)       
1 32276U 07052B   21264.65234331 -.00000088  00000-0  00000-0 0  9993
2 32276  66.0872  13.6892 0007732 328.1432 306.2926  2.13103429108239
COSMOS 2434 (721)       
1 32393U 07065A   21264.72832076  .00000008  00000-0  00000-0 0  9996
2 32393  64.4403 250.6100 0000722 171.3473 101.0123  2.13103083106943
COSMOS 2436 (723)       
1 32395U 07065C   21264.36812442  .00000007  00000-0  00000-0 0  9992
2 32395  64.4489 250.6766 0014392 349.5672 142.5144  2.13102918106876
COSMOS 2456 (730)       
1 36111U 09070A   21264.51998084  .00000041  00000-0  00000-0 0  9992
2 36111  64.2906 130.2871 0002907 332.3067 309.5167  2.13099402 91602
COSMOS 2457 (733)       
1 36112U 09070B   21264.86300856  .00000040  00000-0  00000-0 0  9994
2 36112  64.2745 130.1571 0005666 154.7459 155.3867  2.13101631 91619
COSMOS 2459 (731)       
1 36400U 10007A   21264.72739885 -.00000088  00000-0  00000-0 0  9992
2 36400  65.9689  12.5019 0024710 350.4120 251.5965  2.13108576 89952
COSMOS 2461 (735)       
1 36401U 10007B   21264.72770432 -.00000088  00000-0  00000-0 0  9996
2 36401  65.9641  12.4658 0018270  11.0909 229.9127  2.13103622 89965
COSMOS 2460 (732)       
1 36402U 10007C   21264.79464582 -.00000088  00000-0  00000-0 0  9990
2 36402  65.9517  12.4194 0002126 147.2901  90.8491  2.13106496 89961
COSMOS 2464 (736)       
1 37139U 10041C   21264.69518587  .00000007  00000-0  00000-0 0  9990
2 37139  64.0395 249.8202 0026955   5.0800 102.0610  2.13100733 86025
COSMOS 2471 (701K)      
1 37372U 11009A   21264.65377846 -.00000088  00000-0  00000-0 0  9991
2 37372  65.9450  12.3528 0016181 225.3365  38.4425  2.13062361 82232
COSMOS 2476 (744)       
1 37867U 11064A   21264.51577166  .00000041  00000-0  00000-0 0  9991
2 37867  64.5851 131.5380 0019958 234.1733 307.5755  2.13101952 76951
COSMOS 2477 (745)       
1 37868U 11064B   21264.74842841  .00000040  00000-0  00000-0 0  9991
2 37868  64.5922 131.5921 0017357 235.2693 303.2509  2.13101844 76916
COSMOS 2475 (743)       
1 37869U 11064C   21264.53462743  .00000041  00000-0  00000-0 0  9999
2 37869  64.5984 131.6048 0021018 256.0551  76.2428  2.13102179 76918
COSMOS 2485 (747)       
1 39155U 13019A   21264.41945918  .00000042  00000-0  00000-0 0  9999
2 39155  64.7498 131.9107 0020387 230.2456 282.0880  2.13102072 65420
COSMOS 2492 (754)       
1 39620U 14012A   21264.72077149 -.00000088  00000-0  00000-0 0  9997
2 39620  65.8399  12.1402 0010880 322.6526  95.5341  2.13103223 58383
COSMOS 2500 (755)       
1 40001U 14032A   21264.50674552 -.00000089  00000-0  00000-0 0  9992
2 40001  65.7796  12.0291 0007829 190.6409 282.7445  2.13102379 56592
COSMOS 2501 (702K)      
1 40315U 14075A   21264.93330947  .00000007  00000-0  00000-0 0  9990
2 40315  63.7501 250.5836 0018798 213.6505  33.7454  2.13101342 53002
COSMOS 2514 (751)       
1 41330U 16008A   21264.54403918 -.00000089  00000-0  00000-0 0  9993
2 41330  65.5807  11.7853 0011012 202.5069 122.8099  2.13102868 43759
COSMOS 2516 (753)       
1 41554U 16032A   21264.51283573  .00000007  00000-0  00000-0 0  9997
2 41554  63.9756 250.7982 0015780 222.4239 336.3164  2.13107163 41369
COSMOS 2522 (752)       
1 42939U 17055A   21264.79640014  .00000008  00000-0  00000-0 0  9999
2 42939  64.2091 251.1045 0010113 247.2758  30.2024  2.13101997 31121
COSMOS 2527 (756)       
1 43508U 18053A   21264.62966091  .00000042  00000-0  00000-0 0  9997
2 43508  64.9132 131.8480 0007168 222.9617 318.7263  2.13102620 25412
COSMOS 2529 (757)       
1 43687U 18086A   21264.59984360  .00000008  00000-0  00000-0 0  9998
2 43687  64.4233 251.3556 0012217 265.9778 176.2726  2.13102072 22436
COSMOS 2534 (758)       
1 44299U 19030A   21264.60013263  .00000008  00000-0  00000-0 0  9995
2 44299  64.4943 251.2142 0014714 283.0127 294.2389  2.13101940 18071
COSMOS 2544 (759)       
1 44850U 19088A   21264.59066884  .00000042  00000-0  00000-0 0  9994
2 44850  64.9003 131.7070 0010784 259.3286 296.1174  2.13102373 13847
COSMOS 2545 (760)       
1 45358U 20018A   21264.85737487 -.00000089  00000-0  00000-0 0  9998
2 45358  64.9144  12.6036 0008791 235.1351  14.8046  2.13102705 11802
